[
    {
        "Altitude(m)": 706934.9904624108,
        "Argument of Periapsis(deg)": 0.005695060593313534,
        "Eccentricity": 0.0,
        "Inclination(deg)": 45.0,
        "Latitude(deg)": 43.4837847269784,
        "Longitude(deg)": 179.0098720086607,
        "Mean Anomaly(deg)": 103.9484083237404,
        "RAAN(deg)": 169.99462402927088,
        "Satellite Name": "Constellation 1 754",
        "Satellite Number": 754,
        "Semi-Major Axis(m)": 7083131.272910544,
        "Time(s)": 95
    },
    {
        "Altitude(m)": 706931.8000821465,
        "Argument of Periapsis(deg)": 0.00575500859955894,
        "Eccentricity": 0.0,
        "Inclination(deg)": 45.0,
        "Latitude(deg)": 43.4694784749827,
        "Longitude(deg)": 179.08690183754308,
        "Mean Anomaly(deg)": 104.00910946399033,
        "RAAN(deg)": 169.99456744010533,
        "Satellite Name": "Constellation 1 754",
        "Satellite Number": 754,
        "Semi-Major Axis(m)": 7083131.272910544,
        "Time(s)": 96
    },
    {
        "Altitude(m)": 706928.5972899114,
        "Argument of Periapsis(deg)": 0.005814956605804345,
        "Eccentricity": 0.0,
        "Inclination(deg)": 45.0,
        "Latitude(deg)": 43.45511466298045,
        "Longitude(deg)": 179.16389351902833,
        "Mean Anomaly(deg)": 104.06981060424019,
        "RAAN(deg)": 169.99451085093978,
        "Satellite Name": "Constellation 1 754",
        "Satellite Number": 754,
        "Semi-Major Axis(m)": 7083131.272910544,
        "Time(s)": 97
    },
    {
        "Altitude(m)": 706925.3821046621,
        "Argument of Periapsis(deg)": 0.00587490461204975,
        "Eccentricity": 0.0,
        "Inclination(deg)": 45.0,
        "Latitude(deg)": 43.440693346528995,
        "Longitude(deg)": 179.24084676881358,
        "Mean Anomaly(deg)": 104.13051174449006,
        "RAAN(deg)": 169.9944542617742,
        "Satellite Name": "Constellation 1 754",
        "Satellite Number": 754,
        "Semi-Major Axis(m)": 7083131.272910544,
        "Time(s)": 98
    },
    {
        "Altitude(m)": 706922.1545454279,
        "Argument of Periapsis(deg)": 0.005934852618295156,
        "Eccentricity": 0.0,
        "Inclination(deg)": 45.0,
        "Latitude(deg)": 43.4262145813406,
        "Longitude(deg)": 179.31776147124734,
        "Mean Anomaly(deg)": 104.19121288474,
        "RAAN(deg)": 169.99439767260864,
        "Satellite Name": "Constellation 1 754",
        "Satellite Number": 754,
        "Semi-Major Axis(m)": 7083131.272910544,
        "Time(s)": 99
    },
    {
        "Altitude(m)": 706918.9146313238,
        "Argument of Periapsis(deg)": 0.005994800624540561,
        "Eccentricity": 0.0,
        "Inclination(deg)": 45.0,
        "Latitude(deg)": 43.41167842328194,
        "Longitude(deg)": 179.39463751123216,
        "Mean Anomaly(deg)": 104.25191402498992,
        "RAAN(deg)": 169.99434108344303,
        "Satellite Name": "Constellation 1 754",
        "Satellite Number": 754,
        "Semi-Major Axis(m)": 7083131.272910544,
        "Time(s)": 100
    },
    {
        "Altitude(m)": 706915.6623815255,
        "Argument of Periapsis(deg)": 0.006054748630785968,
        "Eccentricity": 0.0,
        "Inclination(deg)": 45.0,
        "Latitude(deg)": 43.397084928372934,
        "Longitude(deg)": 179.47147477422646,
        "Mean Anomaly(deg)": 104.3126151652398,
        "RAAN(deg)": 169.99428449427748,
        "Satellite Name": "Constellation 1 754",
        "Satellite Number": 754,
        "Semi-Major Axis(m)": 7083131.272910544,
        "Time(s)": 101
    },
    {
        "Altitude(m)": 706912.3978152934,
        "Argument of Periapsis(deg)": 0.006114696637031373,
        "Eccentricity": 0.0,
        "Inclination(deg)": 45.0,
        "Latitude(deg)": 43.38243415278604,
        "Longitude(deg)": 179.54827314624393,
        "Mean Anomaly(deg)": 104.37331630548968,
        "RAAN(deg)": 169.99422790511193,
        "Satellite Name": "Constellation 1 754",
        "Satellite Number": 754,
        "Semi-Major Axis(m)": 7083131.272910544,
        "Time(s)": 102
    },
    {
        "Altitude(m)": 706909.1209519538,
        "Argument of Periapsis(deg)": 0.006174644643276778,
        "Eccentricity": 0.0,
        "Inclination(deg)": 45.0,
        "Latitude(deg)": 43.36772615284526,
        "Longitude(deg)": 179.62503251385456,
        "Mean Anomaly(deg)": 104.43401744573958,
        "RAAN(deg)": 169.99417131594635,
        "Satellite Name": "Constellation 1 754",
        "Satellite Number": 754,
        "Semi-Major Axis(m)": 7083131.272910544,
        "Time(s)": 103
    },
    {
        "Altitude(m)": 706905.8318109205,
        "Argument of Periapsis(deg)": 0.006234592649522184,
        "Eccentricity": 0.0,
        "Inclination(deg)": 45.0,
        "Latitude(deg)": 43.35296098502552,
        "Longitude(deg)": 179.7017525960885,
        "Mean Anomaly(deg)": 104.49471858598955,
        "RAAN(deg)": 169.9941147267808,
        "Satellite Name": "Constellation 1 754",
        "Satellite Number": 754,
        "Semi-Major Axis(m)": 7083131.272910544,
        "Time(s)": 104
    },
    {
        "Altitude(m)": 706902.5304116688,
        "Argument of Periapsis(deg)": 0.00629454065576759,
        "Eccentricity": 0.0,
        "Inclination(deg)": 45.0,
        "Latitude(deg)": 43.33813870595056,
        "Longitude(deg)": 179.77843361682392,
        "Mean Anomaly(deg)": 104.55541972623938,
        "RAAN(deg)": 169.9940581376152,
        "Satellite Name": "Constellation 1 754",
        "Satellite Number": 754,
        "Semi-Major Axis(m)": 7083131.272910544,
        "Time(s)": 105
    },
    {
        "Altitude(m)": 706899.2167737555,
        "Argument of Periapsis(deg)": 0.006354488662012995,
        "Eccentricity": 0.0,
        "Inclination(deg)": 45.0,
        "Latitude(deg)": 43.32325937239386,
        "Longitude(deg)": 179.85507529620608,
        "Mean Anomaly(deg)": 104.61612086648928,
        "RAAN(deg)": 169.99400154844963,
        "Satellite Name": "Constellation 1 754",
        "Satellite Number": 754,
        "Semi-Major Axis(m)": 7083131.272910544,
        "Time(s)": 106
    },
    {
        "Altitude(m)": 706895.8909168141,
        "Argument of Periapsis(deg)": 0.006414436668258401,
        "Eccentricity": 0.0,
        "Inclination(deg)": 45.0,
        "Latitude(deg)": 43.30832304127642,
        "Longitude(deg)": 179.93167752303575,
        "Mean Anomaly(deg)": 104.67682200673921,
        "RAAN(deg)": 169.99394495928408,
        "Satellite Name": "Constellation 1 754",
        "Satellite Number": 754,
        "Semi-Major Axis(m)": 7083131.272910544,
        "Time(s)": 107
    },
    {
        "Altitude(m)": 706892.5528605417,
        "Argument of Periapsis(deg)": 0.0064743846745038075,
        "Eccentricity": 0.0,
        "Inclination(deg)": 45.0,
        "Latitude(deg)": 43.293329769666265,
        "Longitude(deg)": -179.9917598133281,
        "Mean Anomaly(deg)": 104.73752314698909,
        "RAAN(deg)": 169.9938883701185,
        "Satellite Name": "Constellation 1 754",
        "Satellite Number": 754,
        "Semi-Major Axis(m)": 7083131.272910544,
        "Time(s)": 108
    },
    {
        "Altitude(m)": 706889.2026247216,
        "Argument of Periapsis(deg)": 0.0065343326807492125,
        "Eccentricity": 0.0,
        "Inclination(deg)": 45.0,
        "Latitude(deg)": 43.27827961477747,
        "Longitude(deg)": -179.91523682296645,
        "Mean Anomaly(deg)": 104.79822428723897,
        "RAAN(deg)": 169.99383178095292,
        "Satellite Name": "Constellation 1 754",
        "Satellite Number": 754,
        "Semi-Major Axis(m)": 7083131.272910544,
        "Time(s)": 109
    },
    {
        "Altitude(m)": 706885.8402292068,
        "Argument of Periapsis(deg)": 0.0065942806869946176,
        "Eccentricity": 0.0,
        "Inclination(deg)": 45.0,
        "Latitude(deg)": 43.263172633969184,
        "Longitude(deg)": -179.83875361540103,
        "Mean Anomaly(deg)": 104.8589254274889,
        "RAAN(deg)": 169.99377519178736,
        "Satellite Name": "Constellation 1 754",
        "Satellite Number": 754,
        "Semi-Major Axis(m)": 7083131.272910544,
        "Time(s)": 110
    },
    {
        "Altitude(m)": 706882.4656939164,
        "Argument of Periapsis(deg)": 0.006654228693240024,
        "Eccentricity": 0.0,
        "Inclination(deg)": 45.0,
        "Latitude(deg)": 43.248008884745154,
        "Longitude(deg)": -179.76231046769024,
        "Mean Anomaly(deg)": 104.9196265677388,
        "RAAN(deg)": 169.9937186026218,
        "Satellite Name": "Constellation 1 754",
        "Satellite Number": 754,
        "Semi-Major Axis(m)": 7083131.272910544,
        "Time(s)": 111
    },
    {
        "Altitude(m)": 706879.0790388592,
        "Argument of Periapsis(deg)": 0.006714176699485429,
        "Eccentricity": 0.0,
        "Inclination(deg)": 45.0,
        "Latitude(deg)": 43.23278842475146,
        "Longitude(deg)": -179.68590715204093,
        "Mean Anomaly(deg)": 104.9803277079887,
        "RAAN(deg)": 169.99366201345623,
        "Satellite Name": "Constellation 1 754",
        "Satellite Number": 754,
        "Semi-Major Axis(m)": 7083131.272910544,
        "Time(s)": 112
    },
    {
        "Altitude(m)": 706875.6802841024,
        "Argument of Periapsis(deg)": 0.006774124705730835,
        "Eccentricity": 0.0,
        "Inclination(deg)": 45.0,
        "Latitude(deg)": 43.21751131177753,
        "Longitude(deg)": -179.60954394439,
        "Mean Anomaly(deg)": 105.0410288482386,
        "RAAN(deg)": 169.99360542429068,
        "Satellite Name": "Constellation 1 754",
        "Satellite Number": 754,
        "Semi-Major Axis(m)": 7083131.272910544,
        "Time(s)": 113
    }
]